SNUGLITE                
1 43784U 18099AC  23255.68410648  .00006173  00000+0  48508-3 0  9991
2 43784  97.5469 315.0252 0009423 163.7319 196.4210 15.01198669260797
ITASAT 1                
1 43786U 18099AE  23256.08766146  .00006813  00000+0  54648-3 0  9998
2 43786  97.5647 316.3000 0017475 193.1471 166.9300 15.00286863260823
KAZSCISAT-1             
1 43787U 18099AF  23255.74281974  .00010501  00000+0  74424-3 0  9995
2 43787  97.5481 316.1375 0008201 177.0380 183.0897 15.04944712260931
EAGLET-I                
1 43790U 18099AJ  23255.82494367  .00004858  00000+0  39768-3 0  9990
2 43790  97.5657 316.4384 0012926 194.1232 165.9632 14.99703793260513
ESEO                    
1 43792U 18099AL  23255.74186938  .00001260  00000+0  11140-3 0  9993
2 43792  97.5621 314.5532 0012201 184.0937 176.0188 14.98005824260491
CSIM-FD                 
1 43793U 18099AM  23255.76051949  .00011785  00000+0  81224-3 0  9992
2 43793  97.5699 319.4426 0015832 182.3420 177.7735 15.05887571260755
ASTROCAST 0.1           
1 43798U 18099AS  23255.73025014  .00012187  00000+0  87954-3 0  9991
2 43798  97.5775 318.6394 0012505 164.0632 196.0989 15.04192027260924
JY1SAT (JO-97)          
1 43803U 18099AX  23255.82302468  .00008815  00000+0  67724-3 0  9995
2 43803  97.5672 316.2152 0013294 157.5518 202.6291 15.01901490260849
SUOMI-100               
1 43804U 18099AY  23255.84093336  .00008773  00000+0  67957-3 0  9990
2 43804  97.5745 315.9901 0017856 170.8222 189.3333 15.01533497260843
AL-FARABI 2             
1 43805U 18099AZ  23255.74084102  .00009277  00000+0  68224-3 0  9999
2 43805  97.5517 317.0184 0013032 160.0300 200.1438 15.03549429260906
CENTAURI-1              
1 43809U 18099BD  23255.76052082  .00004791  00000+0  38816-3 0  9997
2 43809  97.5618 315.7845 0016966 189.8725 170.2168 15.00057254260498
CHOMPTT                 
1 43855U 18104G   23255.67709365  .00032828  00000+0  68893-3 0  9998
2 43855  85.0243 106.4185 0010689   0.5112 359.6152 15.45159275264060
UWE-4                   
1 43880U 18111E   23255.71792820  .00007186  00000+0  53225-3 0  9999
2 43880  97.6256 159.5685 0016175 231.1061 128.8723 15.03329821255516
ZACUBE-2                
1 43907U 18111AH  23256.07469240  .00054305  00000+0  11143-2 0  9993
2 43907  97.1225 133.8399 0010490 248.7252 111.2879 15.45801170262709
MICRODRAGON             
1 43935U 19003D   23255.81507254  .00032723  00000+0  87992-3 0  9990
2 43935  97.1012 272.3209 0012366   7.8348 352.3088 15.37745927258889
FORMOSAT 7-4            
1 44350U 19036M   23255.12418154  .00008583  00000+0  48381-3 0  9998
2 44350  23.9986 150.3520 0000447  80.4586 279.5968 15.10693836231854
METEOR-M2 2             
1 44387U 19038A   23256.15511023  .00000099  00000+0  62780-4 0  9997
2 44387  98.7851 219.9179 0002303  63.5674 296.5740 14.23804421217825
VDNH-80                 
1 44392U 19038G   23256.03797480  .00045065  00000+0  13663-2 0  9999
2 44392  97.6784 240.4074 0013141   6.4952 353.6457 15.33908825231757
D-STAR ONE (LIGHTSAT)   
1 44393U 19038H   23255.94208595  .00049556  00000+0  14554-2 0  9992
2 44393  97.6785 240.5032 0012984   6.6658 353.4755 15.34893214231950
AMGU-1 (AMURSAT)        
1 44394U 19038J   23255.98220693  .00057101  00000+0  15502-2 0  9999
2 44394  97.6756 241.0819 0011884   7.4307 352.7110 15.37328412232006
DOT-1                   
1 44399U 19038P   23255.85375648  .00022734  00000+0  89718-3 0  9996
2 44399  97.6896 236.3018 0019045  17.5550 342.6341 15.25383810231635
SOKRAT                  
1 44404U 19038U   23255.88563216  .00055875  00000+0  15460-2 0  9990
2 44404  97.6770 240.4248 0012693   8.8713 351.2753 15.36733442231950
LUCKY-7                 
1 44406U 19038W   23255.89068053  .00025801  00000+0  97745-3 0  9995
2 44406  97.6872 237.1611 0018064   8.3946 351.7590 15.26734558231696
D-STAR ONE (EXOCONNECT) 
1 44410U 19038AA  23255.91776867  .00334458  00000+0  26592-2 0  9994
2 44410  97.6600 247.9103 0003111  79.4157 280.7455 15.70216680232484
NARSSCUBE-2             
1 44415U 19022E   23255.74649457  .00055920  00000+0  83681-3 0  9994
2 44415  51.6335  63.6336 0008948 264.3554  95.6416 15.54388639229903
DUCHIFAT-3              
1 44854U 19089C   23255.46827336  .00009719  00000+0  62746-3 0  9991
2 44854  36.9608 289.0728 0008078 304.1416  55.8562 15.07756907206003
OPS-SAT                 
1 44878U 19092F   23255.77447499  .00037743  00000+0  97567-3 0  9990
2 44878  97.4723  85.9285 0008250 173.5584 186.5769 15.38978265207241
FLORIPASAT-1            
1 44885U 19093G   23256.07772022  .00006453  00000+0  73363-3 0  9998
2 44885  97.8646 336.2890 0014328 147.9713 212.2376 14.86516680202004
BY70-2                  
1 45857U 20042B   23256.12136875  .00042592  00000+0  39648-2 0  9991
2 45857  97.9225 336.5300 0008906  84.9883 275.2353 14.94109365172658
SALSAT                  
1 46495U 20068K   23255.83252433  .00006648  00000+0  42823-3 0  9996
2 46495  97.7755 204.8440 0015297 174.8574 185.2813 15.08592534162281
NETSAT-4                
1 46504U 20068U   23255.82235636  .00010064  00000+0  64356-3 0  9994
2 46504  97.7672 202.5574 0009307 223.9944 136.0544 15.08779168162112
NETSAT-3                
1 46505U 20068V   23256.13267635  .00010442  00000+0  67185-3 0  9997
2 46505  97.7658 202.6442 0008232 232.5306 127.5174 15.08551579162169
NETSAT-1                
1 46506U 20068W   23256.13113941  .00008685  00000+0  56679-3 0  9990
2 46506  97.7672 202.4839 0006589 244.0636 115.9913 15.08094042162159
NETSAT-2                
1 46507U 20068X   23255.82448054  .00010283  00000+0  65913-3 0  9990
2 46507  97.7660 202.2802 0005705 252.2720 107.7886 15.08708453162065
UVSQ-SAT                
1 47438U 21006AB  23255.71552251  .00021265  00000+0  79695-3 0  9994
2 47438  97.3760 311.6928 0010662 129.6639 230.5542 15.27228399145998
SOMP2B                  
1 47445U 21006AJ  23256.07779003  .00027103  00000+0  10402-2 0  9995
2 47445  97.3727 311.1582 0010516 132.9789 227.2333 15.26390450146013
CAS-5A                  
1 54684U 22167C   23256.04935601  .00020157  00000+0  10424-2 0  9998
2 54684  97.5734  33.2127 0013231  35.9940 324.2181 15.16213604 41984
